start=new Date('2022-06-16T00:00:00.000Z').valueOf();
sats=[{"NORAD_CAT_ID":"45534","SITE":"AFETR","GP_ID":"206205486","ELEMENT_SET_NO":"999","EPHEMERIS_TYPE":"0","SEMIMAJOR_AXIS":"6925.355","TIME_SYSTEM":"UTC","TLE_LINE2":"2 45534  53.0546 105.9925 0001607  56.7729 303.3414 15.06397919119635","TLE_LINE1":"1 45534U 20025D   22166.54875672 -.00000776  00000-0 -33189-4 0  9991","RCS_SIZE":"LARGE","MEAN_MOTION_DDOT":"0.0000000000000","MEAN_ANOMALY":"303.3414","COUNTRY_CODE":"US","MEAN_MOTION":"15.06397919","APOAPSIS":"548.333","MEAN_MOTION_DOT":"-0.00000776","PERIOD":"95.592","OBJECT_TYPE":"PAYLOAD","ECCENTRICITY":"0.00016070","REV_AT_EPOCH":"11963","EPOCH":"2022-06-15T13:10:12.580608","FILE":"3496794","OBJECT_ID":"2020-025D","PERIAPSIS":"546.107","OBJECT_NAME":"STARLINK-1341","CENTER_NAME":"EARTH","REF_FRAME":"TEME","ARG_OF_PERICENTER":"56.7729","CLASSIFICATION_TYPE":"U","RA_OF_ASC_NODE":"105.9925","MEAN_ELEMENT_THEORY":"SGP4","INCLINATION":"53.0546","BSTAR":"-0.00003318900000","LAUNCH_DATE":"2020-04-22","DECAY_DATE":null},{"NORAD_CAT_ID":"45535","SITE":"AFETR","ELEMENT_SET_NO":"999","GP_ID":"206212016","SEMIMAJOR_AXIS":"6925.347","EPHEMERIS_TYPE":"0","TLE_LINE2":"2 45535  53.0557 105.9066 0002110  65.5746 294.5462 15.06400415119057","TIME_SYSTEM":"UTC","RCS_SIZE":"LARGE","TLE_LINE1":"1 45535U 20025E   22166.56718650  .00000439  00000-0  48397-4 0  9997","MEAN_MOTION_DOT":"0.00000439","APOAPSIS":"548.674","MEAN_MOTION":"15.06400415","MEAN_ANOMALY":"294.5462","COUNTRY_CODE":"US","MEAN_MOTION_DDOT":"0.0000000000000","PERIOD":"95.592","OBJECT_ID":"2020-025E","FILE":"3496840","EPOCH":"2022-06-15T13:36:44.913600","REV_AT_EPOCH":"11905","ECCENTRICITY":"0.00021100","OBJECT_TYPE":"PAYLOAD","PERIAPSIS":"545.751","ARG_OF_PERICENTER":"65.5746","REF_FRAME":"TEME","CENTER_NAME":"EARTH","OBJECT_NAME":"STARLINK-1350","RA_OF_ASC_NODE":"105.9066","CLASSIFICATION_TYPE":"U","INCLINATION":"53.0557","MEAN_ELEMENT_THEORY":"SGP4","DECAY_DATE":null,"LAUNCH_DATE":"2020-04-22","BSTAR":"0.00004839700000"},{"CENTER_NAME":"EARTH","OBJECT_NAME":"STARLINK-1352","ARG_OF_PERICENTER":"60.9104","REF_FRAME":"TEME","CLASSIFICATION_TYPE":"U","RA_OF_ASC_NODE":"105.8953","MEAN_ELEMENT_THEORY":"SGP4","INCLINATION":"53.0551","BSTAR":"-0.00008975600000","LAUNCH_DATE":"2020-04-22","DECAY_DATE":null,"PERIOD":"95.592","OBJECT_TYPE":"PAYLOAD","ECCENTRICITY":"0.00015640","FILE":"3496794","OBJECT_ID":"2020-025F","EPOCH":"2022-06-15T13:42:03.694176","REV_AT_EPOCH":"11963","PERIAPSIS":"546.143","TLE_LINE1":"1 45536U 20025F   22166.57087609 -.00001618  00000-0 -89756-4 0  9998","RCS_SIZE":"LARGE","MEAN_ANOMALY":"299.2042","COUNTRY_CODE":"US","MEAN_MOTION_DDOT":"0.0000000000000","MEAN_MOTION_DOT":"-0.00001618","APOAPSIS":"548.309","MEAN_MOTION":"15.06395937","NORAD_CAT_ID":"45536","SITE":"AFETR","GP_ID":"206204494","ELEMENT_SET_NO":"999","EPHEMERIS_TYPE":"0","SEMIMAJOR_AXIS":"6925.361","TIME_SYSTEM":"UTC","TLE_LINE2":"2 45536  53.0551 105.8953 0001564  60.9104 299.2042 15.06395937119637"},{"RA_OF_ASC_NODE":"59.1703","CLASSIFICATION_TYPE":"U","REF_FRAME":"TEME","ARG_OF_PERICENTER":"82.3149","OBJECT_NAME":"STARLINK-1353","CENTER_NAME":"EARTH","DECAY_DATE":null,"LAUNCH_DATE":"2020-04-22","BSTAR":"0.00148120000000","INCLINATION":"52.9746","MEAN_ELEMENT_THEORY":"SGP4","REV_AT_EPOCH":"12028","EPOCH":"2022-06-15T19:01:30.312480","FILE":"3496999","OBJECT_ID":"2020-025G","OBJECT_TYPE":"PAYLOAD","ECCENTRICITY":"0.00036050","PERIOD":"94.460","PERIAPSIS":"489.959","MEAN_MOTION":"15.24451326","APOAPSIS":"494.912","MEAN_MOTION_DOT":"0.00036688","MEAN_MOTION_DDOT":"0.0000000000000","COUNTRY_CODE":"US","MEAN_ANOMALY":"277.8256","RCS_SIZE":"LARGE","TLE_LINE1":"1 45537U 20025G   22166.79271195  .00036688  00000-0  14812-2 0  9990","ELEMENT_SET_NO":"999","GP_ID":"206234930","NORAD_CAT_ID":"45537","SITE":"AFETR","TLE_LINE2":"2 45537  52.9746  59.1703 0003605  82.3149 277.8256 15.24451326120288","TIME_SYSTEM":"UTC","SEMIMAJOR_AXIS":"6870.570","EPHEMERIS_TYPE":"0"},{"EPHEMERIS_TYPE":"0","SEMIMAJOR_AXIS":"6925.382","TLE_LINE2":"2 45538  53.0551 106.0808 0001625  54.0193 306.0947 15.06388930119042","TIME_SYSTEM":"UTC","SITE":"AFETR","NORAD_CAT_ID":"45538","GP_ID":"206211450","ELEMENT_SET_NO":"999","TLE_LINE1":"1 45538U 20025H   22166.53033453 -.00001735  00000-0 -97628-4 0  9991","RCS_SIZE":"LARGE","MEAN_ANOMALY":"306.0947","COUNTRY_CODE":"US","MEAN_MOTION_DDOT":"0.0000000000000","MEAN_MOTION_DOT":"-0.00001735","APOAPSIS":"548.373","MEAN_MOTION":"15.06388930","PERIAPSIS":"546.122","PERIOD":"95.593","OBJECT_TYPE":"PAYLOAD","ECCENTRICITY":"0.00016250","OBJECT_ID":"2020-025H","FILE":"3496828","EPOCH":"2022-06-15T12:43:40.903392","REV_AT_EPOCH":"11904","MEAN_ELEMENT_THEORY":"SGP4","INCLINATION":"53.0551","BSTAR":"-0.00009762800000","LAUNCH_DATE":"2020-04-22","DECAY_DATE":null,"CENTER_NAME":"EARTH","OBJECT_NAME":"STARLINK-1362","ARG_OF_PERICENTER":"54.0193","REF_FRAME":"TEME","CLASSIFICATION_TYPE":"U","RA_OF_ASC_NODE":"106.0808"},{"RA_OF_ASC_NODE":"264.4350","CLASSIFICATION_TYPE":"U","REF_FRAME":"TEME","ARG_OF_PERICENTER":"0.1509","OBJECT_NAME":"STARLINK-1367","CENTER_NAME":"EARTH","DECAY_DATE":null,"BSTAR":"0.00050829000000","LAUNCH_DATE":"2020-04-22","INCLINATION":"53.0436","MEAN_ELEMENT_THEORY":"SGP4","EPOCH":"2022-06-15T13:19:37.152768","REV_AT_EPOCH":"12183","FILE":"3496825","OBJECT_ID":"2020-025J","OBJECT_TYPE":"PAYLOAD","ECCENTRICITY":"0.00124770","PERIOD":"91.107","PERIAPSIS":"320.473","MEAN_MOTION":"15.80566039","MEAN_MOTION_DOT":"0.00099884","APOAPSIS":"337.209","MEAN_MOTION_DDOT":"0.0000000000000","MEAN_ANOMALY":"359.9513","COUNTRY_CODE":"US","RCS_SIZE":"LARGE","TLE_LINE1":"1 45539U 20025J   22166.55529112  .00099884  00000-0  50829-3 0  9997","ELEMENT_SET_NO":"999","GP_ID":"206211650","SITE":"AFETR","NORAD_CAT_ID":"45539","TLE_LINE2":"2 45539  53.0436 264.4350 0012477   0.1509 359.9513 15.80566039121832","TIME_SYSTEM":"UTC","SEMIMAJOR_AXIS":"6706.976","EPHEMERIS_TYPE":"0"},{"APOAPSIS":"548.707","MEAN_MOTION_DOT":"-0.00000057","MEAN_MOTION":"15.06394778","COUNTRY_CODE":"US","MEAN_ANOMALY":"295.2324","MEAN_MOTION_DDOT":"0.0000000000000","RCS_SIZE":"LARGE","TLE_LINE1":"1 45540U 20025K   22166.24282481 -.00000057  00000-0  15109-4 0  9998","TIME_SYSTEM":"UTC","TLE_LINE2":"2 45540  53.0564 107.3712 0002133  64.8887 295.2324 15.06394778119585","SEMIMAJOR_AXIS":"6925.365","EPHEMERIS_TYPE":"0","ELEMENT_SET_NO":"999","GP_ID":"206204995","NORAD_CAT_ID":"45540","SITE":"AFETR","DECAY_DATE":null,"LAUNCH_DATE":"2020-04-22","BSTAR":"0.00001510900000","INCLINATION":"53.0564","MEAN_ELEMENT_THEORY":"SGP4","RA_OF_ASC_NODE":"107.3712","CLASSIFICATION_TYPE":"U","ARG_OF_PERICENTER":"64.8887","REF_FRAME":"TEME","CENTER_NAME":"EARTH","OBJECT_NAME":"STARLINK-1368","PERIAPSIS":"545.752","OBJECT_ID":"2020-025K","FILE":"3496794","EPOCH":"2022-06-15T05:49:40.063584","REV_AT_EPOCH":"11958","OBJECT_TYPE":"PAYLOAD","ECCENTRICITY":"0.00021330","PERIOD":"95.592"},{"SEMIMAJOR_AXIS":"6925.355","EPHEMERIS_TYPE":"0","TLE_LINE2":"2 45541  53.0566 107.3417 0002473  61.8420 298.2819 15.06397790119586","TIME_SYSTEM":"UTC","SITE":"AFETR","NORAD_CAT_ID":"45541","ELEMENT_SET_NO":"999","GP_ID":"206204742","RCS_SIZE":"LARGE","TLE_LINE1":"1 45541U 20025L   22166.24650970 -.00000529  00000-0 -16605-4 0  9998","MEAN_MOTION":"15.06397790","APOAPSIS":"548.933","MEAN_MOTION_DOT":"-0.00000529","MEAN_MOTION_DDOT":"0.0000000000000","COUNTRY_CODE":"US","MEAN_ANOMALY":"298.2819","PERIAPSIS":"545.508","PERIOD":"95.592","REV_AT_EPOCH":"11958","EPOCH":"2022-06-15T05:54:58.438080","OBJECT_ID":"2020-025L","FILE":"3496794","ECCENTRICITY":"0.00024730","OBJECT_TYPE":"PAYLOAD","INCLINATION":"53.0566","MEAN_ELEMENT_THEORY":"SGP4","DECAY_DATE":null,"BSTAR":"-0.00001660500000","LAUNCH_DATE":"2020-04-22","REF_FRAME":"TEME","ARG_OF_PERICENTER":"61.8420","OBJECT_NAME":"STARLINK-1369","CENTER_NAME":"EARTH","RA_OF_ASC_NODE":"107.3417","CLASSIFICATION_TYPE":"U"},{"MEAN_MOTION_DDOT":"0.0000000000000","COUNTRY_CODE":"US","MEAN_ANOMALY":"301.9390","MEAN_MOTION":"15.06391404","APOAPSIS":"548.412","MEAN_MOTION_DOT":"-0.00001570","TLE_LINE1":"1 45542U 20025M   22166.81046524 -.00001570  00000-0 -86506-4 0  9990","RCS_SIZE":"LARGE","GP_ID":"206213144","ELEMENT_SET_NO":"999","NORAD_CAT_ID":"45542","SITE":"AFETR","TLE_LINE2":"2 45542  53.0555 104.8286 0001692  58.1763 301.9390 15.06391404119089","TIME_SYSTEM":"UTC","EPHEMERIS_TYPE":"0","SEMIMAJOR_AXIS":"6925.375","CLASSIFICATION_TYPE":"U","RA_OF_ASC_NODE":"104.8286","OBJECT_NAME":"STARLINK-1371","CENTER_NAME":"EARTH","REF_FRAME":"TEME","ARG_OF_PERICENTER":"58.1763","LAUNCH_DATE":"2020-04-22","BSTAR":"-0.00008650600000","DECAY_DATE":null,"MEAN_ELEMENT_THEORY":"SGP4","INCLINATION":"53.0555","ECCENTRICITY":"0.00016920","OBJECT_TYPE":"PAYLOAD","REV_AT_EPOCH":"11908","EPOCH":"2022-06-15T19:27:04.196736","FILE":"3496891","OBJECT_ID":"2020-025M","PERIOD":"95.593","PERIAPSIS":"546.068"},{"RCS_SIZE":"LARGE","TLE_LINE1":"1 45543U 20025N   22166.25019824 -.00000961  00000-0 -45612-4 0  9998","MEAN_MOTION":"15.06397700","APOAPSIS":"548.743","MEAN_MOTION_DOT":"-0.00000961","MEAN_MOTION_DDOT":"0.0000000000000","MEAN_ANOMALY":"305.5658","COUNTRY_CODE":"US","NORAD_CAT_ID":"45543","SITE":"AFETR","ELEMENT_SET_NO":"999","GP_ID":"206206235","SEMIMAJOR_AXIS":"6925.356","EPHEMERIS_TYPE":"0","TLE_LINE2":"2 45543  53.0575 107.3461 0002199  54.5536 305.5658 15.06397700118683","TIME_SYSTEM":"UTC","REF_FRAME":"TEME","ARG_OF_PERICENTER":"54.5536","OBJECT_NAME":"STARLINK-1372","CENTER_NAME":"EARTH","RA_OF_ASC_NODE":"107.3461","CLASSIFICATION_TYPE":"U","INCLINATION":"53.0575","MEAN_ELEMENT_THEORY":"SGP4","DECAY_DATE":null,"BSTAR":"-0.00004561200000","LAUNCH_DATE":"2020-04-22","PERIOD":"95.592","REV_AT_EPOCH":"11868","EPOCH":"2022-06-15T06:00:17.127936","OBJECT_ID":"2020-025N","FILE":"3496794","OBJECT_TYPE":"PAYLOAD","ECCENTRICITY":"0.00021990","PERIAPSIS":"545.698"}];
